ONEWEB-0616             
1 55157U 23004T   24031.80051765  .00000035  00000+0  55823-4 0  9998
2 55157  87.9235 178.3505 0002853 103.7392 256.4058 13.17651969 53478
ONEWEB-0617             
1 55158U 23004U   24031.95396314 -.00000073  00000+0 -24187-3 0  9999
2 55158  87.8979 193.4739 0001004 102.6411 257.4829 13.11418070 52202
ONEWEB-0618             
1 55159U 23004V   24031.37050575  .00000310  00000+0  12022-3 0  9999
2 55159  86.9123 142.1982 0013645  19.3110 340.8597 14.26794131 55696
ONEWEB-0619             
1 55160U 23004W   24031.45247518  .00000070  00000+0  14836-3 0  9993
2 55160  87.9233 178.3955 0002007 119.2515 240.8817 13.17648940 53328
ONEWEB-0620             
1 55161U 23004X   24031.49130141 -.00000208  00000+0 -62280-3 0  9992
2 55161  87.8982 193.5723 0001000  88.4280 271.6963 13.11418090 52103
ONEWEB-0621             
1 55162U 23004Y   24031.89875968  .00000442  00000+0  12111-2 0  9995
2 55162  87.8976 193.4646 0001489 113.0879 247.0406 13.11414233 52137
ONEWEB-0622             
1 55163U 23004Z   24031.90529015  .00000360  00000+0  98066-3 0  9990
2 55163  87.8977 193.4772 0000581 119.7338 240.3848 13.11418129 52127
ONEWEB-0623             
1 55164U 23004AA  24031.44773526  .00000026  00000+0  33627-4 0  9990
2 55164  87.9233 178.4493 0000916 132.1048 228.0162 13.17648820 53319
